NORAD_CAT_ID,OBJECT_NAME,OBJECT_TYPE,EPOCH,MEAN_MOTION,ECCENTRICITY,INCLINATION,RA_OF_ASC_NODE,ARG_OF_PERICENTER,MEAN_ANOMALY,BSTAR,MEAN_MOTION_DOT,MEAN_MOTION_DDOT,TLE_LINE0,TLE_LINE1,TLE_LINE2,SEMIMAJOR_AXIS,PERIOD,APOGEE,PERIGEE,DECAYED
55774.0,STARLINK-5812,PAYLOAD,2023-03-08 20:00:01,15.94907241,0.0033403,69.9999,141.6047,164.6233,252.8774,-0.0024586,-0.01005322,0.00031439,0 STARLINK-5812,1 55774U 23028AK  23067.83334491 -.01005322  31439-3 -24586-2 0  9991,2 55774  69.9999 141.6047 0033403 164.6233 252.8774 15.94907241  1459,6666.71,90.287,310.844,266.306,0.0
55774.0,STARLINK-5812,PAYLOAD,2023-03-09 20:00:01,15.92956177,0.0022871,69.9995,138.6921,169.6168,224.2176,-0.0028485,-0.01018269,0.00031552,0 STARLINK-5812,1 55774U 23028AK  23068.83334491 -.01018269  31552-3 -28485-2 0  9994,2 55774  69.9995 138.6921 0022871 169.6168 224.2176 15.92956177  1607,6672.152,90.398,309.277,278.757,0.0
55774.0,STARLINK-5812,PAYLOAD,2023-03-09 22:00:00,15.9277294,0.0022378,69.9999,138.4496,169.9051,341.6471,-0.0027659,-0.00978485,0.00029257,0 STARLINK-5812,1 55774U 23028AK  23068.91667824 -.00978485  29257-3 -27659-2 0  9997,2 55774  69.9999 138.4496 0022378 169.9051 341.6471 15.92772940  1620,6672.664,90.408,309.461,279.597,0.0
55774.0,STARLINK-5812,PAYLOAD,2023-03-10 06:00:00,15.92153326,0.0017417,69.9996,137.4804,174.8267,87.0641,-0.0030661,-0.01039727,0.00032527,0 STARLINK-5812,1 55774U 23028AK  23069.25001157 -.01039727  32527-3 -30661-2 0  9995,2 55774  69.9996 137.4804 0017417 174.8267  87.0641 15.92153326  1677,6674.395,90.444,307.885,284.635,0.0
55774.0,STARLINK-5812,PAYLOAD,2023-03-10 14:00:01,15.91492443,0.0014782,70.0001,136.5126,181.1081,190.3563,-0.0031446,-0.01026479,0.00031556,0 STARLINK-5812,1 55774U 23028AK  23069.58334491 -.01026479  31556-3 -31446-2 0  9994,2 55774  70.0001 136.5126 0014782 181.1081 190.3563 15.91492443  1723,6676.243,90.481,307.977,288.239,0.0
55774.0,STARLINK-5812,PAYLOAD,2023-03-10 22:00:00,15.90818251,0.0012775,70.0001,135.5458,187.5225,292.7374,-0.0031256,-0.00983394,0.00028956,0 STARLINK-5812,1 55774U 23028AK  23069.91667824 -.00983394  28956-3 -31256-2 0  9996,2 55774  70.0001 135.5458 0012775 187.5225 292.7374 15.90818251  1781,6678.129,90.519,308.525,291.463,0.0
55774.0,STARLINK-5812,PAYLOAD,2023-03-11 06:00:00,15.90192388,0.0009739,69.9995,134.5791,203.9765,24.2769,-0.0033912,-0.01029964,0.00031349,0 STARLINK-5812,1 55774U 23028AK  23070.25001157 -.01029964  31349-3 -33912-2 0  9992,2 55774  69.9995 134.5791 0009739 203.9765  24.2769 15.90192388  1835,6679.881,90.555,308.252,295.24,0.0
55774.0,STARLINK-5812,PAYLOAD,2023-03-11 14:00:01,15.89535081,0.0008689,69.9997,133.6144,220.8672,114.6788,-0.003501,-0.01027764,0.00031026,0 STARLINK-5812,1 55774U 23028AK  23070.58335648 -.01027764  31026-3 -35010-2 0  9992,2 55774  69.9997 133.6144 0008689 220.8672 114.6788 15.89535081  1886,6681.722,90.593,309.393,297.782,0.0
55774.0,STARLINK-5812,PAYLOAD,2023-03-11 22:00:00,15.8887961,0.0008451,69.9996,132.6498,247.8715,194.0489,-0.0035808,-0.01017155,0.00030243,0 STARLINK-5812,1 55774U 23028AK  23070.91667824 -.01017155  30243-3 -35808-2 0  9991,2 55774  69.9996 132.6498 0008451 247.8715 194.0489 15.88879610  1945,6683.56,90.63,311.073,299.777,0.0
55774.0,STARLINK-5812,PAYLOAD,2023-03-12 06:00:00,15.88222169,0.0009205,69.9995,131.6867,261.786,285.7941,-0.003659,-0.01006616,0.00029479,0 STARLINK-5812,1 55774U 23028AK  23071.25001157 -.01006616  29479-3 -36590-2 0  9998,2 55774  69.9995 131.6867 0009205 261.7860 285.7941 15.88222169  1994,6685.404,90.667,313.423,301.115,0.0
55774.0,STARLINK-5812,PAYLOAD,2023-03-12 14:00:01,15.87556927,0.0008807,69.9997,130.7243,269.7077,22.7536,-0.0036945,-0.00894985,0.0,0 STARLINK-5812,1 55774U 23028AK  23071.58334491 -.00894985  00000-0 -36945-2 0  9997,2 55774  69.9997 130.7243 0008807 269.7077  22.7536 15.87556927  1304,6687.272,90.705,315.026,303.247,0.0
55774.0,STARLINK-5812,PAYLOAD,2023-03-12 22:00:00,15.86924087,0.0004635,69.9999,129.7634,268.4673,128.0796,-0.003966,-0.0092441,0.0,0 STARLINK-5812,1 55774U 23028AK  23071.91667824 -.00924410  00000-0 -39660-2 0  9997,2 55774  69.9999 129.7634 0004635 268.4673 128.0796 15.86924087  1304,6689.049,90.742,314.015,307.814,0.0
55774.0,STARLINK-5812,PAYLOAD,2023-03-13 06:00:00,15.86263177,0.0003549,70.0001,128.8024,273.8776,225.9841,-0.004033,-0.00910699,0.0,0 STARLINK-5812,1 55774U 23028AK  23072.25001157 -.00910699  00000-0 -40330-2 0  9996,2 55774  70.0001 128.8024 0003549 273.8776 225.9841 15.86263177  2159,6690.907,90.779,315.147,310.398,0.0
55774.0,STARLINK-5812,PAYLOAD,2023-03-13 14:00:01,15.8560844,0.000362,70.0003,127.8431,261.2707,341.1205,-0.004142,-0.00906394,0.0,0 STARLINK-5812,1 55774U 23028AK  23072.58334491 -.00906394  00000-0 -41420-2 0  9990,2 55774  70.0003 127.8431 0003620 261.2707 341.1205 15.85608440  1303,6692.749,90.817,317.037,312.191,0.0
55774.0,STARLINK-5812,PAYLOAD,2023-03-13 22:00:00,15.84958587,0.0003673,70.0002,126.8839,268.3807,75.757,-0.004299,-0.00911126,0.0,0 STARLINK-5812,1 55774U 23028AK  23072.91667824 -.00911126  00000-0 -42990-2 0  9998,2 55774  70.0002 126.8839 0003673 268.3807  75.7570 15.84958587  1304,6694.578,90.854,318.902,313.984,0.0
55774.0,STARLINK-5812,PAYLOAD,2023-03-14 06:00:00,15.84303215,0.0003527,70.0002,125.9266,273.3316,171.7711,-0.0044082,-0.00905739,0.0,0 STARLINK-5812,1 55774U 23028AK  23073.25001157 -.00905739  00000-0 -44082-2 0  9994,2 55774  70.0002 125.9266 0003527 273.3316 171.7711 15.84303215  2315,6696.424,90.892,320.651,315.928,0.0
55774.0,STARLINK-5812,PAYLOAD,2023-03-14 14:00:01,15.83650941,0.0003507,70.0002,124.9697,267.4469,277.838,-0.0045442,-0.00905082,0.0,0 STARLINK-5812,1 55774U 23028AK  23073.58334491 -.00905082  00000-0 -45442-2 0  9992,2 55774  70.0002 124.9697 0003507 267.4469 277.8380 15.83650941  1301,6698.263,90.929,322.477,317.779,0.0
55774.0,STARLINK-5812,PAYLOAD,2023-03-14 22:00:00,15.83004256,0.0003595,70.0003,124.0133,273.9312,10.752,-0.0047406,-0.00914684,0.0,0 STARLINK-5812,1 55774U 23028AK  23073.91667824 -.00914684  00000-0 -47406-2 0  9998,2 55774  70.0003 124.0133 0003595 273.9312  10.7520 15.83004256  1306,6700.087,90.966,324.361,319.543,0.0
55774.0,STARLINK-5812,PAYLOAD,2023-03-15 06:00:00,15.82350258,0.0003694,69.9999,123.0585,275.3193,107.982,-0.0048742,-0.00912215,0.0,0 STARLINK-5812,1 55774U 23028AK  23074.25001157 -.00912215  00000-0 -48742-2 0  9999,2 55774  69.9999 123.0585 0003694 275.3193 107.9820 15.82350258  2465,6701.933,91.004,326.274,321.322,0.0
55774.0,STARLINK-5812,PAYLOAD,2023-03-15 14:00:01,15.81692275,0.0003563,70.0001,122.1046,265.2189,215.9195,-0.0049666,-0.00902266,0.0,0 STARLINK-5812,1 55774U 23028AK  23074.58334491 -.00902266  00000-0 -49666-2 0  9996,2 55774  70.0001 122.1046 0003563 265.2189 215.9195 15.81692275  1306,6703.792,91.042,328.045,323.268,0.0
55774.0,STARLINK-5812,PAYLOAD,2023-03-15 22:00:00,15.81042744,0.0003556,70.0001,121.1513,260.7917,317.3991,-0.0051508,-0.00907328,0.0,0 STARLINK-5812,1 55774U 23028AK  23074.91667824 -.00907328  00000-0 -51508-2 0  9994,2 55774  70.0001 121.1513 0003556 260.7917 317.3991 15.81042744  1306,6705.628,91.079,329.877,325.108,0.0
55774.0,STARLINK-5812,PAYLOAD,2023-03-16 06:00:00,15.80393302,0.000367,70.0001,120.199,274.9283,39.5318,-0.005334,-0.0091143,0.0,0 STARLINK-5812,1 55774U 23028AK  23075.25001157 -.00911430  00000-0 -53340-2 0  9998,2 55774  70.0001 120.1990 0003670 274.9283  39.5318 15.80393302  2624,6707.465,91.117,331.791,326.868,0.0
55774.0,STARLINK-5812,PAYLOAD,2023-03-16 14:00:01,15.79734841,0.0003674,70.0,119.2476,267.8569,142.0938,-0.0054269,-0.00900804,0.0,0 STARLINK-5812,1 55774U 23028AK  23075.58334491 -.00900804  00000-0 -54269-2 0  9998,2 55774  70.0000 119.2476 0003674 267.8569 142.0938 15.79734841  1300,6709.328,91.155,333.658,328.728,0.0
55774.0,STARLINK-5812,PAYLOAD,2023-03-16 22:00:00,15.79083379,0.0003517,70.0002,118.2971,264.7345,239.9222,-0.0056004,-0.00902146,0.0,0 STARLINK-5812,1 55774U 23028AK  23075.91667824 -.00902146  00000-0 -56004-2 0  9994,2 55774  70.0002 118.2971 0003517 264.7345 239.9222 15.79083379  1300,6711.173,91.192,335.399,330.678,0.0
55774.0,STARLINK-5812,PAYLOAD,2023-03-17 06:00:00,15.78432947,0.0003531,70.0004,117.3481,275.7671,322.8126,-0.0057912,-0.00905425,0.0,0 STARLINK-5812,1 55774U 23028AK  23076.25001157 -.00905425  00000-0 -57912-2 0  9995,2 55774  70.0004 117.3481 0003531 275.7671 322.8126 15.78432947  2784,6713.017,91.23,337.252,332.512,0.0
55774.0,STARLINK-5812,PAYLOAD,2023-03-17 14:00:01,15.77781812,0.0003633,69.9999,116.3995,268.8282,62.8918,-0.0059612,-0.00905141,0.0,0 STARLINK-5812,1 55774U 23028AK  23076.58334491 -.00905141  00000-0 -59612-2 0  9995,2 55774  69.9999 116.3995 0003633 268.8282  62.8918 15.77781812  1301,6714.864,91.267,339.168,334.289,0.0
55774.0,STARLINK-5812,PAYLOAD,2023-03-17 22:00:00,15.77123681,0.000363,70.0002,115.4515,277.3597,146.7221,-0.0060755,-0.00896616,0.0,0 STARLINK-5812,1 55774U 23028AK  23076.91667824 -.00896616  00000-0 -60755-2 0  9997,2 55774  70.0002 115.4515 0003630 277.3597 146.7221 15.77123681  1301,6716.732,91.305,341.035,336.159,0.0
55774.0,STARLINK-5812,PAYLOAD,2023-03-18 06:00:00,15.76440823,0.0003398,70.0001,114.5046,270.4178,245.2553,-0.0059438,-0.00855042,0.0,0 STARLINK-5812,1 55774U 23028AK  23077.25001157 -.00855042  00000-0 -59438-2 0  9990,2 55774  70.0001 114.5046 0003398 270.4178 245.2553 15.76440823  2942,6718.671,91.345,342.819,338.253,0.0
55774.0,STARLINK-5812,PAYLOAD,2023-03-18 22:00:00,15.7516657,0.0003653,70.0001,112.6139,275.0195,61.4468,-0.0066252,-0.00896691,0.0,0 STARLINK-5812,1 55774U 23028AK  23077.91667824 -.00896691  00000-0 -66252-2 0  9999,2 55774  70.0001 112.6139 0003653 275.0195  61.4468 15.75166570  3046,6722.294,91.419,346.615,341.704,0.0
